[{"OBJECT_NAME":"TEN-KOH","OBJECT_ID":"2018-084G","EPOCH":"2026-03-09T23:23:52.653408","MEAN_MOTION":15.02465351,"ECCENTRICITY":0.0011972,"INCLINATION":98.0798,"RA_OF_ASC_NODE":257.1735,"ARG_OF_PERICENTER":91.8355,"MEAN_ANOMALY":268.424,"EPHEMERIS_TYPE":0,"CLASSIFICATION_TYPE":"U","NORAD_CAT_ID":43677,"ELEMENT_SET_NO":999,"REV_AT_EPOCH":40126,"BSTAR":0.00025918134,"MEAN_MOTION_DOT":3.377e-5,"MEAN_MOTION_DDOT":0},{"OBJECT_NAME":"STARLINK-30457","OBJECT_ID":"2023-146K","EPOCH":"2026-03-09T01:19:36.039936","MEAN_MOTION":15.02534066,"ECCENTRICITY":0.00012621,"INCLINATION":43.0042,"RA_OF_ASC_NODE":316.555,"ARG_OF_PERICENTER":271.3954,"MEAN_ANOMALY":88.6744,"EPHEMERIS_TYPE":0,"CLASSIFICATION_TYPE":"U","NORAD_CAT_ID":57900,"ELEMENT_SET_NO":999,"REV_AT_EPOCH":13591,"BSTAR":-2.0150498e-5,"MEAN_MOTION_DOT":-4.76e-6,"MEAN_MOTION_DDOT":0}]
